OBJECT_NAME,OBJECT_ID,EPOCH,MEAN_MOTION,ECCENTRICITY,INCLINATION,RA_OF_ASC_NODE,ARG_OF_PERICENTER,MEAN_ANOMALY,EPHEMERIS_TYPE,CLASSIFICATION_TYPE,NORAD_CAT_ID,ELEMENT_SET_NO,REV_AT_EPOCH,BSTAR,MEAN_MOTION_DOT,MEAN_MOTION_DDOT
FENGYUN 3D,2017-072A,2026-06-30T12:54:04.948128,14.19742020,.00022212,99.0128,156.2013,39.8610,320.2728,0,U,43010,999,44688,.16322622E-4,-.12E-6,0
NOAA 20 (JPSS-1),2017-073A,2026-06-30T12:49:58.814400,14.19514067,.00007804,98.7773,120.8788,133.9639,226.1601,0,U,43013,999,44636,.42237625E-4,.45E-6,0
GOES 17,2018-022A,2026-06-30T03:23:03.894720,1.00272160,.00007332,0.9685,85.5045,30.2079,123.7662,0,U,43226,999,3055,0,-.173E-5,0
SENTINEL-3B,2018-039A,2026-06-30T14:01:42.302496,14.26738431,.00008144,98.6244,248.9243,114.0975,246.0291,0,U,43437,999,42603,.63811645E-4,.111E-5,0
FENGYUN 2H,2018-050A,2026-06-30T11:01:56.667360,1.00269700,.00017568,3.0646,78.9260,121.3544,323.0462,0,U,43491,999,2957,0,-.121E-5,0
METOP-C,2018-087A,2026-06-30T13:58:40.440000,14.21515657,.00021156,98.6639,240.9408,112.5861,247.5540,0,U,43689,999,39673,.7106164E-4,.112E-5,0
GEO-KOMPSAT-2A,2018-100A,2026-06-30T12:58:27.141888,1.00270865,.00023634,0.0425,120.2814,331.3523,149.8510,0,U,43823,999,2776,0,-.333E-5,0
METEOR-M2 2,2019-038A,2026-06-30T12:30:29.983104,14.24369659,.00015178,98.9144,169.0035,27.7902,332.3357,0,U,44387,999,36319,.89044338E-4,.16E-5,0
ARKTIKA-M 1,2021-016A,2026-06-29T22:50:46.732128,2.00617895,.72928178,63.2520,55.7907,269.9910,14.5481,0,U,47719,999,3904,0,-.281E-5,0
FENGYUN 3E,2021-062A,2026-06-30T12:28:43.006944,14.19904603,.00027645,98.7488,184.7791,63.6655,296.4805,0,U,49008,999,25847,-.65677949E-4,-.183E-5,0
GOES 18,2022-021A,2026-06-30T14:41:27.402144,1.00271019,.00005432,0.0304,154.9179,339.5763,227.5456,0,U,51850,999,672,0,.107E-5,0
NOAA 21 (JPSS-2),2022-150A,2026-06-30T13:36:49.784832,14.19538853,.00023591,98.7060,120.1317,130.6382,229.5000,0,U,54234,999,18844,.50841481E-4,.64E-6,0
METEOSAT-12 (MTG-I1),2022-170C,2026-06-30T07:13:52.102272,1.00276027,.00036763,0.7526,24.9950,73.1654,288.3977,0,U,54743,999,1310,0,.4E-7,0
TIANMU-1 03,2023-039A,2026-06-30T13:33:35.739072,15.47654687,.00037897,97.5229,356.0611,66.1218,294.0429,0,U,55973,999,18290,.26621086E-3,.1366E-3,0
TIANMU-1 04,2023-039B,2026-06-30T13:10:55.777152,15.48267210,.00041617,97.5169,355.1992,59.9072,300.2590,0,U,55974,999,18291,.26357315E-3,.13816E-3,0
TIANMU-1 05,2023-039C,2026-06-30T13:06:50.097024,15.47580323,.00037942,97.5213,355.6515,82.6146,277.5535,0,U,55975,999,18288,.26139348E-3,.13376E-3,0
TIANMU-1 06,2023-039D,2026-06-30T13:17:00.581280,15.48167326,.00040228,97.5221,356.3082,77.8068,282.3632,0,U,55976,999,18291,.26133644E-3,.1365E-3,0
FENGYUN 3G,2023-055A,2026-06-30T13:18:59.871168,15.53206549,.00072357,49.9929,277.1157,352.3168,7.7688,0,U,56232,999,18208,.34554836E-3,.21762E-3,0
METEOR-M2 3,2023-091A,2026-06-30T14:07:54.732288,14.24047905,.00049417,98.6076,236.2926,123.1027,237.0627,0,U,57166,999,15642,.26991609E-4,.19E-6,0
TIANMU-1 07,2023-101A,2026-06-30T13:46:31.275840,15.29959777,.00043317,97.2585,231.9354,94.3794,265.7942,0,U,57399,999,16369,.21628781E-3,.62E-4,0
TIANMU-1 08,2023-101B,2026-06-30T12:58:25.952160,15.29963725,.00055534,97.2573,231.6713,83.1281,277.0591,0,U,57400,999,16368,.21654634E-3,.621E-4,0
TIANMU-1 09,2023-101C,2026-06-30T14:08:18.923424,15.29999670,.00048859,97.2531,231.1277,97.1481,263.0316,0,U,57401,999,16369,.21008091E-3,.6028E-4,0
TIANMU-1 10,2023-101D,2026-06-30T13:22:04.620288,15.29971636,.00064144,97.2611,232.1605,92.1564,268.0412,0,U,57402,999,16368,.2203568E-3,.6323E-4,0
FENGYUN 3F,2023-111A,2026-06-30T12:05:06.211104,14.19941255,.00015078,98.6833,251.2640,83.6914,276.4434,0,U,57490,999,15075,.49444699E-4,.62E-6,0
ARKTIKA-M 2,2023-198A,2026-06-29T17:20:14.637696,2.00610643,.69058771,63.2199,152.9641,267.3845,18.7575,0,U,58584,999,1857,0,.148E-5,0
TIANMU-1 11,2023-205A,2026-06-30T13:15:07.902720,15.27129348,.00074048,97.3439,202.8998,327.1898,32.8880,0,U,58645,999,13956,.20510703E-3,.5387E-4,0
TIANMU-1 12,2023-205B,2026-06-30T12:33:09.373824,15.27026819,.00054414,97.3427,202.6238,306.0164,54.0570,0,U,58646,999,13954,.20817758E-3,.545E-4,0
TIANMU-1 13,2023-205C,2026-06-30T13:21:04.897152,15.26949261,.000496,97.3455,202.9316,280.5264,79.5416,0,U,58647,999,13954,.20136288E-3,.5256E-4,0
TIANMU-1 14,2023-205D,2026-06-30T12:59:12.928704,15.26993896,.00057869,97.3391,202.0879,287.4224,72.6382,0,U,58648,999,13954,.20340886E-3,.5318E-4,0
TIANMU-1 19,2023-208A,2026-06-30T13:10:37.879392,15.31769803,.00035245,97.4521,297.9188,262.3126,97.7715,0,U,58660,999,13937,.25303569E-3,.7685E-4,0
