FENGYUN 3D              
1 43010U 17072A   26181.53755727 -.00000012  00000+0  16323-4 0  9996
2 43010  99.0128 156.2013 0002221  39.8610 320.2728 14.19742020446885
NOAA 20 (JPSS-1)        
1 43013U 17073A   26181.53470850  .00000045  00000+0  42238-4 0  9990
2 43013  98.7773 120.8788 0000780 133.9639 226.1601 14.19514067446366
GOES 17                 
1 43226U 18022A   26181.14101730 -.00000173  00000+0  00000+0 0  9995
2 43226   0.9685  85.5045 0000733  30.2079 123.7662  1.00272160 30557
SENTINEL-3B             
1 43437U 18039A   26181.58451739  .00000111  00000+0  63812-4 0  9998
2 43437  98.6244 248.9243 0000814 114.0975 246.0291 14.26738431426036
FENGYUN 2H              
1 43491U 18050A   26181.45968365 -.00000121  00000+0  00000+0 0  9992
2 43491   3.0646  78.9260 0001756 121.3544 323.0462  1.00269700 29571
METOP-C                 
1 43689U 18087A   26181.58241250  .00000112  00000+0  71062-4 0  9992
2 43689  98.6639 240.9408 0002115 112.5861 247.5540 14.21515657396735
GEO-KOMPSAT-2A          
1 43823U 18100A   26181.54059192 -.00000333  00000+0  00000+0 0  9991
2 43823   0.0425 120.2814 0002363 331.3523 149.8510  1.00270865 27764
METEOR-M2 2             
1 44387U 19038A   26181.52118036  .00000160  00000+0  89044-4 0  9996
2 44387  98.9144 169.0035 0001517  27.7902 332.3357 14.24369659363195
ARKTIKA-M 1             
1 47719U 21016A   26180.95192977 -.00000281  00000+0  00000+0 0  9994
2 47719  63.2520  55.7907 7292817 269.9910  14.5481  2.00617895 39040
FENGYUN 3E              
1 49008U 21062A   26181.51994221 -.00000183  00000+0 -65678-4 0  9992
2 49008  98.7488 184.7791 0002764  63.6655 296.4805 14.19904603258471
GOES 18                 
1 51850U 22021A   26181.61212271  .00000107  00000+0  00000+0 0  9992
2 51850   0.0304 154.9179 0000543 339.5763 227.5456  1.00271019  6729
NOAA 21 (JPSS-2)        
1 54234U 22150A   26181.56724288  .00000064  00000+0  50841-4 0  9999
2 54234  98.7060 120.1317 0002359 130.6382 229.5000 14.19538853188447
METEOSAT-12 (MTG-I1)    
1 54743U 22170C   26181.30129748  .00000004  00000+0  00000+0 0  9999
2 54743   0.7526  24.9950 0003676  73.1654 288.3977  1.00276027 13106
TIANMU-1 03             
1 55973U 23039A   26181.56499698  .00013660  00000+0  26621-3 0  9995
2 55973  97.5229 356.0611 0003789  66.1218 294.0429 15.47654687182901
TIANMU-1 04             
1 55974U 23039B   26181.54925668  .00013816  00000+0  26357-3 0  9994
2 55974  97.5169 355.1992 0004161  59.9072 300.2590 15.48267210182913
TIANMU-1 05             
1 55975U 23039C   26181.54641316  .00013376  00000+0  26139-3 0  9999
2 55975  97.5213 355.6515 0003794  82.6146 277.5535 15.47580323182889
TIANMU-1 06             
1 55976U 23039D   26181.55347895  .00013650  00000+0  26134-3 0  9996
2 55976  97.5221 356.3082 0004022  77.8068 282.3632 15.48167326182911
FENGYUN 3G              
1 56232U 23055A   26181.55485962  .00021762  00000+0  34555-3 0  9997
2 56232  49.9929 277.1157 0007235 352.3168   7.7688 15.53206549182082
METEOR-M2 3             
1 57166U 23091A   26181.58882792  .00000019  00000+0  26992-4 0  9998
2 57166  98.6076 236.2926 0004941 123.1027 237.0627 14.24047905156428
TIANMU-1 07             
1 57399U 23101A   26181.57397310  .00006200  00000+0  21629-3 0  9993
2 57399  97.2585 231.9354 0004331  94.3794 265.7942 15.29959777163696
TIANMU-1 08             
1 57400U 23101B   26181.54057815  .00006210  00000+0  21655-3 0  9996
2 57400  97.2573 231.6713 0005553  83.1281 277.0591 15.29963725163689
TIANMU-1 09             
1 57401U 23101C   26181.58910791  .00006028  00000+0  21008-3 0  9991
2 57401  97.2531 231.1277 0004885  97.1481 263.0316 15.29999670163697
TIANMU-1 10             
1 57402U 23101D   26181.55699792  .00006323  00000+0  22036-3 0  9994
2 57402  97.2611 232.1605 0006414  92.1564 268.0412 15.29971636163683
FENGYUN 3F              
1 57490U 23111A   26181.50354411  .00000062  00000+0  49445-4 0  9991
2 57490  98.6833 251.2640 0001507  83.6914 276.4434 14.19941255150757
ARKTIKA-M 2             
1 58584U 23198A   26180.72239164  .00000148  00000+0  00000+0 0  9995
2 58584  63.2199 152.9641 6905877 267.3845  18.7575  2.00610643 18573
TIANMU-1 11             
1 58645U 23205A   26181.55217480  .00005387  00000+0  20511-3 0  9994
2 58645  97.3439 202.8998 0007404 327.1898  32.8880 15.27129348139561
TIANMU-1 12             
1 58646U 23205B   26181.52302516  .00005450  00000+0  20818-3 0  9998
2 58646  97.3427 202.6238 0005441 306.0164  54.0570 15.27026819139544
TIANMU-1 13             
1 58647U 23205C   26181.55630668  .00005256  00000+0  20136-3 0  9991
2 58647  97.3455 202.9316 0004960 280.5264  79.5416 15.26949261139543
TIANMU-1 14             
1 58648U 23205D   26181.54112186  .00005318  00000+0  20341-3 0  9998
2 58648  97.3391 202.0879 0005786 287.4224  72.6382 15.26993896139546
TIANMU-1 19             
1 58660U 23208A   26181.54904953  .00007685  00000+0  25304-3 0  9999
2 58660  97.4521 297.9188 0003524 262.3126  97.7715 15.31769803139377
